{
  "norad_id": 56123,
  "name": "STARLINK-6115",
  "history": [
    {
      "epoch": "2026-03-28T13:44:43.160064Z",
      "apogee_km": 486.28405573614054,
      "perigee_km": 484.79738314211045,
      "latitude_deg": -1.7937468937780145e-05,
      "longitude_deg": 8.547211148499557,
      "height_km": 485.30178818442545,
      "semi_major_axis_km": 6863.677719439125,
      "eccentricity": 0.0001083,
      "inclination_deg": 43.0033,
      "raan_deg": 40.7183,
      "arg_perigee_deg": 271.2193,
      "mean_anomaly_deg": 88.8534,
      "mean_motion_rev_day": 15.26748272
    },
    {
      "epoch": "2026-03-30T03:25:42.712608Z",
      "apogee_km": 486.09031891223003,
      "perigee_km": 484.8878116255946,
      "latitude_deg": -3.2445437287315603e-07,
      "longitude_deg": 152.89440043243403,
      "height_km": 485.2664918299896,
      "semi_major_axis_km": 6863.626065268912,
      "eccentricity": 8.76e-05,
      "inclination_deg": 43.0059,
      "raan_deg": 31.8612,
      "arg_perigee_deg": 269.9581,
      "mean_anomaly_deg": 90.117,
      "mean_motion_rev_day": 15.26765507
    },
    {
      "epoch": "2026-03-30T04:59:55.465440Z",
      "apogee_km": 486.21142883136054,
      "perigee_km": 484.8332060404191,
      "latitude_deg": -3.62109131930276e-05,
      "longitude_deg": 128.90893924787468,
      "height_km": 485.33870276889655,
      "semi_major_axis_km": 6863.6593174358895,
      "eccentricity": 0.0001004,
      "inclination_deg": 43.0059,
      "raan_deg": 31.4934,
      "arg_perigee_deg": 266.7318,
      "mean_anomaly_deg": 93.3418,
      "mean_motion_rev_day": 15.26754412
    },
    {
      "epoch": "2026-03-30T12:50:58.094304Z",
      "apogee_km": 486.23022908785606,
      "perigee_km": 484.8835723445354,
      "latitude_deg": 2.2787410547678634e-05,
      "longitude_deg": 8.981330898604169,
      "height_km": 485.45071583801126,
      "semi_major_axis_km": 6863.6939007161955,
      "eccentricity": 9.81e-05,
      "inclination_deg": 43.0041,
      "raan_deg": 29.6491,
      "arg_perigee_deg": 259.9963,
      "mean_anomaly_deg": 100.0778,
      "mean_motion_rev_day": 15.26742873
    },
    {
      "epoch": "2026-03-30T20:42:00.321408Z",
      "apogee_km": 486.33941551462976,
      "perigee_km": 484.7757286172209,
      "latitude_deg": 2.2767340618891573e-05,
      "longitude_deg": -110.94666179568316,
      "height_km": 485.4649012922463,
      "semi_major_axis_km": 6863.694572065925,
      "eccentricity": 0.00011391,
      "inclination_deg": 43.0039,
      "raan_deg": 27.8028,
      "arg_perigee_deg": 260.4016,
      "mean_anomaly_deg": 99.6707,
      "mean_motion_rev_day": 15.26742649
    },
    {
      "epoch": "2026-03-31T12:24:05.162688Z",
      "apogee_km": 486.33884043922717,
      "perigee_km": 484.76993786149524,
      "latitude_deg": -1.7322710852275942e-05,
      "longitude_deg": 9.198093022427699,
      "height_km": 485.4628845897808,
      "semi_major_axis_km": 6863.691389150361,
      "eccentricity": 0.00011429,
      "inclination_deg": 43.0033,
      "raan_deg": 24.1126,
      "arg_perigee_deg": 260.343,
      "mean_anomaly_deg": 99.7292,
      "mean_motion_rev_day": 15.26743711
    }
  ]
}